{"type": "FeatureCollection", "features": [ {"type": "Feature", "properties": {"norad_id": 38953, "name": "BEIDOU-2 G6 (C02)", "group": "beidou", "lat": -3.2332368919323042, "lon": 20.024538287028832, "alt_km": 35756.23482464612, "timestamp": "2025-12-07T14:37:05.469944+00:00", "meta": {"OBJECT_NAME": "BEIDOU-2 G6 (C02)", "OBJECT_ID": "2012-059A", "EPOCH": "2025-12-06T22:18:37.478016", "MEAN_MOTION": 1.00270241, "ECCENTRICITY": 0.00075789, "INCLINATION": 3.9339, "RA_OF_ASC_NODE": 75.5599, "ARG_OF_PERICENTER": 289.2612, "MEAN_ANOMALY": 129.8378, "EPHEMERIS_TYPE": 0, "CLASSIFICATION_TYPE": "U", "NORAD_CAT_ID": 38953, "ELEMENT_SET_NO": 999, "REV_AT_EPOCH": 4798, "BSTAR": 0, "MEAN_MOTION_DOT": -1.72e-06, "MEAN_MOTION_DDOT": 0}, "tle": {"line1": "1 38953U 12059A   25340.92960044 -.00000172  00000+0  00000+0 0  9992", "line2": "2 38953   3.9339  75.5599 0007578 289.2612 129.8378  1.00270241 47987"}}, "geometry": {"type": "Point", "coordinates": [20.024538287028832, -3.2332368919323042]}}, {"type": "Feature", "properties": {"norad_id": 40748, "name": "BEIDOU-3S M2S (C58)", "group": "beidou", "lat": -12.378733803093382, "lon": -60.207355045979966, "alt_km": 21522.307137817934, "timestamp": "2025-12-07T14:37:05.469955+00:00", "meta": {"OBJECT_NAME": "BEIDOU-3S M2S (C58)", "OBJECT_ID": "2015-037A", "EPOCH": "2025-12-04T09:50:19.277376", "MEAN_MOTION": 1.86229056, "ECCENTRICITY": 0.00124004, "INCLINATION": 55.0462, "RA_OF_ASC_NODE": 308.7497, "ARG_OF_PERICENTER": 267.6151, "MEAN_ANOMALY": 92.2259, "EPHEMERIS_TYPE": 0, "CLASSIFICATION_TYPE": "U", "NORAD_CAT_ID": 40748, "ELEMENT_SET_NO": 999, "REV_AT_EPOCH": 7049, "BSTAR": 0, "MEAN_MOTION_DOT": -6.8e-07, "MEAN_MOTION_DDOT": 0}, "tle": {"line1": "1 40748U 15037A   25338.40994534 -.00000068  00000+0  00000+0 0  9991", "line2": "2 40748  55.0462 308.7497 0012400 267.6151  92.2259  1.86229056 70498"}}, "geometry": {"type": "Point", "coordinates": [-60.207355045979966, -12.378733803093382]}}, {"type": "Feature", "properties": {"norad_id": 40749, "name": "BEIDOU-3S M1S (C57)", "group": "beidou", "lat": -8.254733105374827, "lon": 134.4296790302551, "alt_km": 21536.096696640194, "timestamp": "2025-12-07T14:37:05.469967+00:00", "meta": {"OBJECT_NAME": "BEIDOU-3S M1S (C57)", "OBJECT_ID": "2015-037B", "EPOCH": "2025-12-01T22:57:46.412352", "MEAN_MOTION": 1.86253762, "ECCENTRICITY": 0.0003321, "INCLINATION": 55.0451, "RA_OF_ASC_NODE": 308.8236, "ARG_OF_PERICENTER": 355.9906, "MEAN_ANOMALY": 3.9975, "EPHEMERIS_TYPE": 0, "CLASSIFICATION_TYPE": "U", "NORAD_CAT_ID": 40749, "ELEMENT_SET_NO": 999, "REV_AT_EPOCH": 7045, "BSTAR": 0, "MEAN_MOTION_DOT": -6e-07, "MEAN_MOTION_DDOT": 0}, "tle": {"line1": "1 40749U 15037B   25335.95678718 -.00000060  00000+0  00000+0 0  9994", "line2": "2 40749  55.0451 308.8236 0003321 355.9906   3.9975  1.86253762 70451"}}, "geometry": {"type": "Point", "coordinates": [134.4296790302551, -8.254733105374827]}}, {"type": "Feature", "properties": {"norad_id": 40938, "name": "BEIDOU-3S IGSO-2S (C56)", "group": "beidou", "lat": 35.49039832826315, "lon": 43.64082014714601, "alt_km": 35645.58864675574, "timestamp": "2025-12-07T14:37:05.469979+00:00", "meta": {"OBJECT_NAME": "BEIDOU-3S IGSO-2S (C56)", "OBJECT_ID": "2015-053A", "EPOCH": "2025-12-03T17:17:32.013024", "MEAN_MOTION": 1.0027148, "ECCENTRICITY": 0.00611089, "INCLINATION": 49.5266, "RA_OF_ASC_NODE": 261.1136, "ARG_OF_PERICENTER": 188.632, "MEAN_ANOMALY": 338.5579, "EPHEMERIS_TYPE": 0, "CLASSIFICATION_TYPE": "U", "NORAD_CAT_ID": 40938, "ELEMENT_SET_NO": 999, "REV_AT_EPOCH": 3739, "BSTAR": 0, "MEAN_MOTION_DOT": -1.53e-06, "MEAN_MOTION_DDOT": 0}, "tle": {"line1": "1 40938U 15053A   25337.72050941 -.00000153  00000+0  00000+0 0  9994", "line2": "2 40938  49.5266 261.1136 0061108 188.6320 338.5579  1.00271480 37397"}}, "geometry": {"type": "Point", "coordinates": [43.64082014714601, 35.49039832826315]}}, {"type": "Feature", "properties": {"norad_id": 41434, "name": "BEIDOU-2 IGSO-6 (C13)", "group": "beidou", "lat": -10.324803854889353, "lon": 33.9462137391588, "alt_km": 35904.24936512855, "timestamp": "2025-12-07T14:37:05.469991+00:00", "meta": {"OBJECT_NAME": "BEIDOU-2 IGSO-6 (C13)", "OBJECT_ID": "2016-021A", "EPOCH": "2025-12-01T15:57:35.287200", "MEAN_MOTION": 1.00256562, "ECCENTRICITY": 0.00591323, "INCLINATION": 59.9483, "RA_OF_ASC_NODE": 40.0119, "ARG_OF_PERICENTER": 231.2834, "MEAN_ANOMALY": 130.8807, "EPHEMERIS_TYPE": 0, "CLASSIFICATION_TYPE": "U", "NORAD_CAT_ID": 41434, "ELEMENT_SET_NO": 999, "REV_AT_EPOCH": 3550, "BSTAR": 0, "MEAN_MOTION_DOT": -1.55e-06, "MEAN_MOTION_DDOT": 0}, "tle": {"line1": "1 41434U 16021A   25335.66499175 -.00000155  00000+0  00000+0 0  9991", "line2": "2 41434  59.9483  40.0119 0059132 231.2834 130.8807  1.00256562 35501"}}, "geometry": {"type": "Point", "coordinates": [33.9462137391588, -10.324803854889353]}}, {"type": "Feature", "properties": {"norad_id": 41586, "name": "BEIDOU-2 G7 (C03)", "group": "beidou", "lat": -0.6138599531014514, "lon": 46.36489416681295, "alt_km": 35769.66388947387, "timestamp": "2025-12-07T14:37:05.470004+00:00", "meta": {"OBJECT_NAME": "BEIDOU-2 G7 (C03)", "OBJECT_ID": "2016-037A", "EPOCH": "2025-12-06T21:02:21.814368", "MEAN_MOTION": 1.00269933, "ECCENTRICITY": 0.00043846, "INCLINATION": 1.7421, "RA_OF_ASC_NODE": 67.7397, "ARG_OF_PERICENTER": 1.2617, "MEAN_ANOMALY": 72.9813, "EPHEMERIS_TYPE": 0, "CLASSIFICATION_TYPE": "U", "NORAD_CAT_ID": 41586, "ELEMENT_SET_NO": 999, "REV_AT_EPOCH": 496, "BSTAR": 0, "MEAN_MOTION_DOT": -3.48e-06, "MEAN_MOTION_DDOT": 0}, "tle": {"line1": "1 41586U 16037A   25340.87664137 -.00000348  00000+0  00000+0 0  9991", "line2": "2 41586   1.7421  67.7397 0004384   1.2617  72.9813  1.00269933  4968"}}, "geometry": {"type": "Point", "coordinates": [46.36489416681295, -0.6138599531014514]}}, {"type": "Feature", "properties": {"norad_id": 43001, "name": "BEIDOU-3 M1 (C19)", "group": "beidou", "lat": 50.01604896690478, "lon": -162.57482462300112, "alt_km": 21546.824275590658, "timestamp": "2025-12-07T14:37:05.470016+00:00", "meta": {"OBJECT_NAME": "BEIDOU-3 M1 (C19)", "OBJECT_ID": "2017-069A", "EPOCH": "2025-12-06T08:47:12.602112", "MEAN_MOTION": 1.86230764, "ECCENTRICITY": 0.00089894, "INCLINATION": 56.5217, "RA_OF_ASC_NODE": 69.4444, "ARG_OF_PERICENTER": 303.7678, "MEAN_ANOMALY": 56.1608, "EPHEMERIS_TYPE": 0, "CLASSIFICATION_TYPE": "U", "NORAD_CAT_ID": 43001, "ELEMENT_SET_NO": 999, "REV_AT_EPOCH": 5501, "BSTAR": 0, "MEAN_MOTION_DOT": -4.5e-07, "MEAN_MOTION_DDOT": 0}, "tle": {"line1": "1 43001U 17069A   25340.36611808 -.00000045  00000+0  00000+0 0  9996", "line2": "2 43001  56.5217  69.4444 0008989 303.7678  56.1608  1.86230764 55019"}}, "geometry": {"type": "Point", "coordinates": [-162.57482462300112, 50.01604896690478]}}, {"type": "Feature", "properties": {"norad_id": 43002, "name": "BEIDOU-3 M2 (C20)", "group": "beidou", "lat": 20.90145091276861, "lon": -125.16665519600802, "alt_km": 21543.14982903921, "timestamp": "2025-12-07T14:37:05.470027+00:00", "meta": {"OBJECT_NAME": "BEIDOU-3 M2 (C20)", "OBJECT_ID": "2017-069B", "EPOCH": "2025-12-06T07:18:26.076672", "MEAN_MOTION": 1.8623066, "ECCENTRICITY": 0.00062871, "INCLINATION": 56.5209, "RA_OF_ASC_NODE": 69.4828, "ARG_OF_PERICENTER": 331.4917, "MEAN_ANOMALY": 28.4877, "EPHEMERIS_TYPE": 0, "CLASSIFICATION_TYPE": "U", "NORAD_CAT_ID": 43002, "ELEMENT_SET_NO": 999, "REV_AT_EPOCH": 5500, "BSTAR": 0, "MEAN_MOTION_DOT": -4.6e-07, "MEAN_MOTION_DDOT": 0}, "tle": {"line1": "1 43002U 17069B   25340.30446848 -.00000046  00000+0  00000+0 0  9992", "line2": "2 43002  56.5209  69.4828 0006287 331.4917  28.4877  1.86230660 55004"}}, "geometry": {"type": "Point", "coordinates": [-125.16665519600802, 20.90145091276861]}}, {"type": "Feature", "properties": {"norad_id": 43107, "name": "BEIDOU-3 M7 (C27)", "group": "beidou", "lat": -26.38295287829524, "lon": -71.74800246424905, "alt_km": 21533.02757066201, "timestamp": "2025-12-07T14:37:05.470039+00:00", "meta": {"OBJECT_NAME": "BEIDOU-3 M7 (C27)", "OBJECT_ID": "2018-003A", "EPOCH": "2025-12-05T12:15:18.978048", "MEAN_MOTION": 1.86232243, "ECCENTRICITY": 0.00026626, "INCLINATION": 54.5032, "RA_OF_ASC_NODE": 309.0664, "ARG_OF_PERICENTER": 69.7812, "MEAN_ANOMALY": 290.2304, "EPHEMERIS_TYPE": 0, "CLASSIFICATION_TYPE": "U", "NORAD_CAT_ID": 43107, "ELEMENT_SET_NO": 999, "REV_AT_EPOCH": 5374, "BSTAR": 0, "MEAN_MOTION_DOT": -7.1e-07, "MEAN_MOTION_DDOT": 0}, "tle": {"line1": "1 43107U 18003A   25339.51063632 -.00000071  00000+0  00000+0 0  9992", "line2": "2 43107  54.5032 309.0664 0002662  69.7812 290.2304  1.86232243 53743"}}, "geometry": {"type": "Point", "coordinates": [-71.74800246424905, -26.38295287829524]}}, {"type": "Feature", "properties": {"norad_id": 43108, "name": "BEIDOU-3 M8 (C28)", "group": "beidou", "lat": 3.1619121845859546, "lon": -48.78661732946758, "alt_km": 21527.704104571756, "timestamp": "2025-12-07T14:37:05.470050+00:00", "meta": {"OBJECT_NAME": "BEIDOU-3 M8 (C28)", "OBJECT_ID": "2018-003B", "EPOCH": "2025-12-05T23:49:06.243168", "MEAN_MOTION": 1.86230755, "ECCENTRICITY": 0.00047661, "INCLINATION": 54.4957, "RA_OF_ASC_NODE": 309.0324, "ARG_OF_PERICENTER": 274.7089, "MEAN_ANOMALY": 85.2198, "EPHEMERIS_TYPE": 0, "CLASSIFICATION_TYPE": "U", "NORAD_CAT_ID": 43108, "ELEMENT_SET_NO": 999, "REV_AT_EPOCH": 5376, "BSTAR": 0, "MEAN_MOTION_DOT": -7.1e-07, "MEAN_MOTION_DDOT": 0}, "tle": {"line1": "1 43108U 18003B   25339.99243337 -.00000071  00000+0  00000+0 0  9997", "line2": "2 43108  54.4957 309.0324 0004766 274.7089  85.2198  1.86230755 53764"}}, "geometry": {"type": "Point", "coordinates": [-48.78661732946758, 3.1619121845859546]}}]}